PROMETHEUS 2-1          
1 41854U 16067G   23288.42754828  .00017705  00000+0  11383-2 0  9992
2 41854  98.0828  83.9947 0015754 168.5822 191.5766 15.08377858378592
PROMETHEUS 2-3          
1 41855U 16067H   23288.95264900  .00016440  00000+0  10584-2 0  9995
2 41855  98.0748  84.2811 0013326 176.0257 184.1078 15.08376155378679
DIDO-2                  
1 42000U 17008BE  23289.08988039  .00036605  00000+0  74330-3 0  9990
2 42000  97.1866 343.6155 0003877 326.2509  33.8494 15.46245801370573
PEASSS                  
1 42015U 17008BV  23289.16638702  .00214252  00000+0  14338-2 0  9991
2 42015  97.1853 354.3853 0003008 261.8022  98.2902 15.74660402371725
UCLSAT                  
1 42765U 17036A   23289.05761332  .00263245  00000+0  15657-2 0  9999
2 42765  97.1213 328.7087 0001481  16.0223 344.1090 15.77240140352149
AALTO-1                 
1 42775U 17036L   23288.89272249  .00033151  00000+0  79633-3 0  9991
2 42775  97.1409 315.8033 0009639  41.1603 319.0369 15.41226974351070
URSA MAIOR              
1 42776U 17036M   23288.83317980  .00039576  00000+0  85821-3 0  9991
2 42776  97.1410 317.5205 0008762  37.7649 322.4213 15.44262375351164
DIAMOND RED             
1 42783U 17036U   23288.90147510  .00052165  00000+0  95244-3 0  9996
2 42783  97.1376 321.5324 0006892  40.3390 319.8371 15.49225360351427
PEGASUS                 
1 42784U 17036V   23288.85562255  .00112081  00000+0  12144-2 0  9999
2 42784  97.1306 325.8038 0003906  29.0567 331.0909 15.63177041351716
DIAMOND GREEN           
1 42785U 17036W   23288.59310970  .00063242  00000+0  10663-2 0  9994
2 42785  97.1345 321.6780 0006472  42.9498 317.2259 15.51441232351397
DIAMOND BLUE            
1 42786U 17036X   23289.06153097  .00058803  00000+0  10411-2 0  9991
2 42786  97.1366 321.9639 0006570  37.6711 322.5000 15.50076374351455
SKCUBE                  
1 42789U 17036AA  23289.08207700  .00305501  00000+0  15872-2 0  9993
2 42789  97.1202 329.6126 0001155   6.1334 353.9948 15.80158714351988
ROBUSTA 1B              
1 42792U 17036AD  23289.05914152  .05243762  22996-5  16088-2 0  9999
2 42792  97.1001 332.4157 0006846 256.0808 103.9724 16.26751731352186
CICERO 6                
1 42793U 17036AE  23288.65961042  .00041552  00000+0  84873-3 0  9997
2 42793  97.1350 320.9997 0006695  44.3931 315.7854 15.46031355351466
CORVUS BC2              
1 42846U 17042X   23288.80070776  .00004097  00000+0  37464-3 0  9992
2 42846  97.3777 122.9463 0009035 158.9410 201.2185 14.95483895340741
CORVUS BC1              
1 42847U 17042Y   23288.78424709  .00003945  00000+0  35983-3 0  9994
2 42847  97.3782 123.2978 0008739 155.4834 204.6805 14.95602173340754
MIRATA                  
1 43015U 17073C   23288.67847055  .00023422  00000+0  13687-2 0  9995
2 43015  97.6143 173.0867 0200427  12.3264 348.2756 14.96472963319481
MAKERSAT 0              
1 43016U 17073D   23289.16765113  .00017372  00000+0  11116-2 0  9997
2 43016  97.6115 170.7783 0218855  23.0623 338.0239 14.90936066319312
CORVUS BC3              
1 43118U 18004H   23289.15355880  .00046227  00000+0  95939-3 0  9997
2 43118  97.3156   3.7996 0006658  70.5560 289.6408 15.45541393320677
CICERO 7                
1 43143U 18004AJ  23289.23628960  .00285867  00000+0  13849-2 0  9990
2 43143  97.3118  20.5794 0002129 299.1782  60.9273 15.81740571321681
GOMX-4B                 
1 43196U 18015E   23288.40049130  .00035568  00000+0  84446-3 0  9997
2 43196  97.5916  83.3690 0012740 132.5329 227.6995 15.41532585317437
GOMX-4A                 
1 43197U 18015F   23289.47843104  .00036493  00000+0  75131-3 0  9998
2 43197  97.5909  87.2804 0011968 121.4959 238.7460 15.45776342317791
CUBEBEL-1 (BSUSAT-1)    
1 43666U 18083E   23289.43678269  .00077420  00000+0  14043-2 0  9997
2 43666  97.3660 322.4899 0008238  54.7785 305.4236 15.49295376275897
CICERO 10               
1 43690U 18088A   23288.65102615  .00034385  00000+0  78501-3 0  9992
2 43690  85.0312 350.7597 0011118 136.6414 223.5716 15.42652828274020
PROXIMA I               
1 43694U 18088E   23289.44193471  .00049115  00000+0  95563-3 0  9998
2 43694  85.0225 345.3226 0012308  99.8741 260.3905 15.47302676274466
PROXIMA II              
1 43696U 18088G   23289.20956760  .00045780  00000+0  89812-3 0  9996
2 43696  85.0234 345.5576 0012429 100.9136 259.3518 15.47070965274421
SIRION PATHFINDER-2     
1 43759U 18099B   23289.13003601  .00005479  00000+0  44669-3 0  9999
2 43759  97.5627 347.3474 0015749  66.7781 293.5099 14.99771826265744
CORVUS BC4              
1 43767U 18099K   23289.13671266  .00005081  00000+0  42054-3 0  9991
2 43767  97.5532 345.1258 0011676  73.2996 286.9508 14.99260132265643
MOVE-II                 
1 43780U 18099Y   23288.90885117  .00016476  00000+0  11099-2 0  9996
2 43780  97.5584 350.5170 0009625 101.2359 258.9951 15.06721064265897
SPACEBEE-7              
1 43816U 18099BL  23288.67715444  .00012196  00000+0  86655-3 0  9991
2 43816  97.5834 351.2391 0012148  53.1207 307.1131 15.04780458265414
SPACEBEE-5              
1 43817U 18099BM  23288.71388653  .00087326  00000+0  29965-2 0  9992
2 43817  97.5785   1.8674 0002830  13.7937 346.3380 15.29798899266036
SPACEBEE-6              
1 43818U 18099BN  23288.69768579  .00020789  00000+0  12849-2 0  9992
2 43818  97.5766 353.9314 0012014  65.8473 294.4011 15.09821658265723
SHIELDS 1               
1 43850U 18104B   23289.44412428  .00013734  00000+0  45939-3 0  9997
2 43850  85.0223  88.2551 0010509 267.1306  92.8738 15.30800955268640
STF-1                   
1 43852U 18104D   23288.85755747  .00081402  00000+0  12242-2 0  9994
2 43852  85.0156  84.0719 0007544 264.2051  95.8349 15.54525539269063
ZACUBE-2                
1 43907U 18111AH  23289.50645870  .00053967  00000+0  97567-3 0  9990
2 43907  97.1136 166.7350 0014609 123.8474 236.4171 15.49406391267875
LUME 1                  
1 43908U 18111AJ  23289.20607348  .00090089  00000+0  11522-2 0  9998
2 43908  97.1130 171.4006 0012701 109.0903 251.1731 15.58830267268156
MOVE-IIB                
1 44398U 19038N   23289.41339166  .00201799  00000+0  21391-2 0  9991
2 44398  97.6656 279.6644 0010037 167.4422 192.7088 15.63398199237432
SONATE                  
1 44400U 19038Q   23289.21733748  .00016435  00000+0  66989-3 0  9991
2 44400  97.6971 269.6819 0017067 246.2936 113.6510 15.24407081236658
LUCKY-7                 
1 44406U 19038W   23289.49541432  .00023113  00000+0  83269-3 0  9995
2 44406  97.6927 271.8107 0015100 234.8258 125.1567 15.28463538236828
BEESAT 9                
1 44412U 19038AC  23288.94703592  .00046870  00000+0  12532-2 0  9997
2 44412  97.6837 274.2294 0010639 221.1593 138.8850 15.37865675236668
JAISAT-1                
1 44419U 19038F   23289.52686343  .00044840  00000+0  11909-2 0  9995
2 44419  97.6824 275.9586 0010360 213.8987 146.1597 15.38087188237138
DUCHIFAT-3              
1 44854U 19089C   23289.49667949  .00014402  00000+0  90163-3 0  9992
2 44854  36.9600  85.0755 0007526 244.9633 115.0330 15.08756288211144
EYESAT-NANO             
1 44877U 19092E   23288.78259908  .00347406  00000+0  29347-2 0  9992
2 44877  97.4457 123.5009 0004561  10.7158 349.4200 15.68696787212792
M2 PATHFINDER           
1 45727U 20037E   23289.45421573  .00004898  00000+0  45321-3 0  9998
2 45727  97.7652 102.7941 0010838 216.1534 143.8955 14.94950552179353
NETSAT-4                
1 46504U 20068U   23288.84243352  .00010485  00000+0  65616-3 0  9993
2 46504  97.7746 236.0010 0012960 114.3881 245.8701 15.09524568167092
NETSAT-3                
1 46505U 20068V   23289.35700330  .00009544  00000+0  60232-3 0  9998
2 46505  97.7715 236.2724 0011689 120.4538 239.7846 15.09256658167170
NETSAT-1                
1 46506U 20068W   23288.83611937  .00008065  00000+0  51808-3 0  9991
2 46506  97.7735 235.5661 0010005 128.5728 231.6398 15.08677395167083
NETSAT-2                
1 46507U 20068X   23288.84606338  .00010432  00000+0  65472-3 0  9995
2 46507  97.7734 235.7159 0009364 132.5078 227.6943 15.09456854167049
SAI-1 NANOCONNECT-2     
1 47701U 21015C   23289.49226119  .00250268  00000+0  17399-2 0  9999
2 47701  97.3710  17.0746 0002756 192.2510 167.8687 15.73666837147033
WILDTRACKCUBE-SIMBA     
1 47941U 21022K   23289.50743876  .00012265  00000+0  66660-3 0  9998
2 47941  97.4811 184.4320 0015872 278.8013  81.1421 15.14531040141356
BEESAT-6                
1 47957U 21022AB  23288.97239774  .00040834  00000+0  16062-2 0  9995
2 47957  97.4776 187.2262 0010927 267.4694  92.5293 15.25477968141302
SMOG-1                  
1 47964U 21022AJ  23288.89054074  .00039404  00000+0  14629-2 0  9990
2 47964  97.4829 189.5916 0009815 247.6432 112.3767 15.27418336140452
BCCSAT-1                
1 48041U 21022AK  23288.66944246  .00032310  00000+0  13267-2 0  9997
2 48041  97.4827 187.8016 0008156 252.0525 107.9824 15.24113437140296
BEESAT-5                
1 48083U 21022AM  23288.67284815  .00043564  00000+0  16023-2 0  9999
2 48083  97.4657 187.2948 0009953 263.7202  96.2904 15.27701342140434
BEESAT-7                
1 48084U 21022AN  23288.52673948  .00037888  00000+0  14579-2 0  9999
2 48084  97.4777 187.0096 0010561 267.4859  92.5170 15.26232419139970
BEESAT-8                
1 48085U 21022AP  23288.51392566  .00018475  00000+0  87388-3 0  9993
2 48085  97.4851 185.6961 0013705 274.8805  85.0865 15.19342896140439
LEDSAT                  
1 49069U 21073D   23289.16478095  .00014177  00000+0  71961-3 0  9991
2 49069  97.4706 358.1066 0023780  63.0043 297.3615 15.16770440119221
